GLOBALSTAR M035         
1 25851U 99037A   25161.45273603 -.00000122  00000+0 -22161-2 0  9994
2 25851  51.9963  69.9827 0014101 332.8973 198.0096 11.04538566 95511
GLOBALSTAR M032         
1 25852U 99037B   25161.54348994 -.00000037  00000+0  96191-3 0  9990
2 25852  51.9950 255.4388 0012604 155.2462 204.8945 11.19061181134049
GLOBALSTAR M051         
1 25853U 99037C   25161.84128952 -.00000077  00000+0 -13554-3 0  9991
2 25853  51.9811  56.1996 0000321 134.2710 225.8127 11.42205109131681
GLOBALSTAR M030         
1 25854U 99037D   25161.42088740 -.00000103  00000+0 -58672-3 0  9996
2 25854  51.9862 223.7528 0002856  35.1502 324.9502 11.55108779149264
GLOBALSTAR M048         
1 25872U 99041A   25161.49863340 -.00000055  00000+0  41471-3 0  9999
2 25872  51.9395 351.8030 0013485 169.9213 228.2093 11.33857244124225
GLOBALSTAR M026         
1 25873U 99041B   25161.58443919 -.00000073  00000+0 -31705-3 0  9996
2 25873  51.9967 187.7212 0002464 259.0796 273.2956 11.06841430147752
GLOBALSTAR M043         
1 25874U 99041C   25161.54546853 -.00000088  00000+0 -59213-3 0  9994
2 25874  51.9393  99.0697 0013689 302.5739 228.7163 11.25694250122126
GLOBALSTAR M028         
1 25875U 99041D   25161.51946145 -.00000044  00000+0  36582-3 0  9995
2 25875  51.9603 212.9485 0063243  57.2545 303.4390 12.50583812189375
